IRIDIUM 155             
1 43573U 18061E   21215.08364041  .00000074  00000-0  19385-4 0  9996
2 43573  86.3938  80.2278 0002559  79.7258 280.4226 14.34218375158362
IRIDIUM 154             
1 43574U 18061F   21214.57623893  .00000070  00000-0  18055-4 0  9992
2 43574  86.3942  80.4889 0002020  92.6509 267.4918 14.34220044158330
IRIDIUM 163             
1 43575U 18061G   21214.62696678  .00000071  00000-0  18279-4 0  9999
2 43575  86.3939  80.4372 0001664  78.1401 281.9981 14.34217146158315
IRIDIUM 156             
1 43576U 18061H   21214.60160972  .00000067  00000-0  16785-4 0  9996
2 43576  86.3939  80.4529 0002106  76.3309 283.8121 14.34217424158304
IRIDIUM 164             
1 43577U 18061J   21215.07095941  .00000079  00000-0  21271-4 0  9991
2 43577  86.3941  80.2698 0001950  90.2872 269.8547 14.34218467158415
IRIDIUM 159             
1 43578U 18061K   21215.10901141  .00000079  00000-0  21088-4 0  9990
2 43578  86.3939  80.2280 0002041  90.4210 269.7219 14.34220319158380
IRIDIUM 180             
1 43922U 19002A   21214.68989238  .00000082  00000-0  22201-4 0  9996
2 43922  86.3980  17.2427 0001658 116.4966 243.6400 14.34216955133930
IRIDIUM 176             
1 43923U 19002B   21215.03631664  .00000151  00000-0  19969-4 0  9998
2 43923  86.6112  17.1308 0002373  92.2992 267.8497 14.72252821137485
IRIDIUM 168             
1 43924U 19002C   21214.68354575  .00000051  00000-0  11280-4 0  9999
2 43924  86.3983  17.2724 0002096  99.2391 260.9042 14.34216167133919
IRIDIUM 173             
1 43925U 19002D   21214.74063636  .00000067  00000-0  16694-4 0  9993
2 43925  86.3979  17.2098 0002068  96.2684 263.8747 14.34217309133902
IRIDIUM 169             
1 43926U 19002E   21215.08516206  .00000019  00000-0 -22188-6 0  9993
2 43926  86.4201  48.6617 0006974  81.9909 278.2080 14.38609022134449
IRIDIUM 172             
1 43927U 19002F   21214.73429369  .00000088  00000-0  24204-4 0  9992
2 43927  86.3980  17.2150 0002014  98.5608 261.5816 14.34218421133916
IRIDIUM 175             
1 43928U 19002G   21215.09809083  .00000169  00000-0  22923-4 0  9994
2 43928  86.6115  16.9262 0001867  88.8688 271.2743 14.72252175137484
IRIDIUM 171             
1 43929U 19002H   21214.99432763  .00000053  00000-0  11800-4 0  9994
2 43929  86.3989  17.2149 0002145  98.9811 261.1627 14.34216511133947
IRIDIUM 170             
1 43930U 19002J   21214.97451146  .00000159  00000-0  21293-4 0  9994
2 43930  86.6113  17.1628 0002274  96.7696 263.3780 14.72253648137483
IRIDIUM 167             
1 43931U 19002K   21214.70891512  .00000070  00000-0  17779-4 0  9997
2 43931  86.3979  17.2322 0001828 110.6539 249.4853 14.34216305133905
